{
    "links": {
        "self": "http://www.neowsapp.com/rest/v1/neo/3774001?api_key=iIulBulltgU6a56xZRHN4H3l9WmuAYTsLGpBGhQ2"
    },
    "id": "3774001",
    "neo_reference_id": "3774001",
    "name": "(2017 HU)",
    "designation": "2017 HU",
    "nasa_jpl_url": "http://ssd.jpl.nasa.gov/sbdb.cgi?sstr=3774001",
    "absolute_magnitude_h": 21.5,
    "estimated_diameter": {
        "kilometers": {
            "estimated_diameter_min": 0.1332155667,
            "estimated_diameter_max": 0.2978790628
        },
        "meters": {
            "estimated_diameter_min": 133.2155666981,
            "estimated_diameter_max": 297.8790627982
        },
        "miles": {
            "estimated_diameter_min": 0.0827762899,
            "estimated_diameter_max": 0.1850934111
        },
        "feet": {
            "estimated_diameter_min": 437.0589598459,
            "estimated_diameter_max": 977.2935443908
        }
    },
    "is_potentially_hazardous_asteroid": false,
    "close_approach_data": [
        {
            "close_approach_date": "2017-04-23",
            "close_approach_date_full": "2017-Apr-23 13:57",
            "epoch_date_close_approach": 1492955820000,
            "relative_velocity": {
                "kilometers_per_second": "29.0004079887",
                "kilometers_per_hour": "104401.4687594287",
                "miles_per_hour": "64871.0126299906"
            },
            "miss_distance": {
                "astronomical": "0.2053093081",
                "lunar": "79.8653208509",
                "kilometers": "30713835.182933747",
                "miles": "19084692.2137378286"
            },
            "orbiting_body": "Earth"
        }
    ],
    "orbital_data": {
        "orbit_id": "9",
        "orbit_determination_date": "2017-05-13 06:43:31",
        "first_observation_date": "2017-04-16",
        "last_observation_date": "2017-05-04",
        "data_arc_in_days": 18,
        "observations_used": 73,
        "orbit_uncertainty": "8",
        "minimum_orbit_intersection": ".202477",
        "jupiter_tisserand_invariant": "3.433",
        "epoch_osculation": "2457868.5",
        "eccentricity": ".4509439663846433",
        "semi_major_axis": "1.844233395604103",
        "inclination": "54.89090143169306",
        "ascending_node_longitude": "29.37951504349673",
        "orbital_period": "914.7917723312167",
        "perihelion_distance": "1.01258747325137",
        "perihelion_argument": "243.9756153611391",
        "aphelion_distance": "2.675879317956837",
        "perihelion_time": "2457924.908117698314",
        "mean_anomaly": "337.8015904978641",
        "mean_motion": ".3935321795500972",
        "equinox": "J2000",
        "orbit_class": {
            "orbit_class_type": "APO",
            "orbit_class_description": "Near-Earth asteroid orbits which cross the Earth’s orbit similar to that of 1862 Apollo",
            "orbit_class_range": "a (semi-major axis) > 1.0 AU; q (perihelion) < 1.017 AU"
        }
    },
    "is_sentry_object": false
}